[{"OBJECT_NAME":"TIANMU-1 08","OBJECT_ID":"2023-101B","EPOCH":"2026-03-07T00:03:25.475616","MEAN_MOTION":15.29204229,"ECCENTRICITY":0.00063808,"INCLINATION":97.2717,"RA_OF_ASC_NODE":118.7901,"ARG_OF_PERICENTER":134.2174,"MEAN_ANOMALY":225.9592,"EPHEMERIS_TYPE":0,"CLASSIFICATION_TYPE":"U","NORAD_CAT_ID":57400,"ELEMENT_SET_NO":999,"REV_AT_EPOCH":14602,"BSTAR":1.4774513e-5,"MEAN_MOTION_DOT":3.46e-6,"MEAN_MOTION_DDOT":0},{"OBJECT_NAME":"STARLINK-34239","OBJECT_ID":"2025-144E","EPOCH":"2026-03-09T14:58:48.731232","MEAN_MOTION":15.30186319,"ECCENTRICITY":0.0001334,"INCLINATION":53.1602,"RA_OF_ASC_NODE":181.2192,"ARG_OF_PERICENTER":77.2019,"MEAN_ANOMALY":282.9131,"EPHEMERIS_TYPE":0,"CLASSIFICATION_TYPE":"U","NORAD_CAT_ID":64728,"ELEMENT_SET_NO":999,"REV_AT_EPOCH":3970,"BSTAR":0.0011737,"MEAN_MOTION_DOT":0.0003455,"MEAN_MOTION_DDOT":0}]
